NORAD_CAT_ID,OBJECT_NAME,OBJECT_TYPE,EPOCH,MEAN_MOTION,ECCENTRICITY,INCLINATION,RA_OF_ASC_NODE,ARG_OF_PERICENTER,MEAN_ANOMALY,BSTAR,MEAN_MOTION_DOT,MEAN_MOTION_DDOT,TLE_LINE0,TLE_LINE1,TLE_LINE2,SEMIMAJOR_AXIS,PERIOD,APOGEE,PERIGEE,DECAYED
53420.0,STARLINK-4552,PAYLOAD,2024-01-20 07:00:41,15.08851589,0.0001412,53.2179,12.9742,81.015,279.1002,-3.8617e-05,-9.03e-06,0.0,0 STARLINK-4552,1 53420U 22097AJ  24020.29214919 -.00000903  00000-0 -38617-4 0  9992,2 53420  53.2179  12.9742 0001412  81.0150 279.1002 15.08851589 80505,6917.845,95.437,540.687,538.733,0.0
53420.0,STARLINK-4552,PAYLOAD,2024-01-21 03:40:42,15.08843409,0.0001498,53.2181,9.1072,79.3575,280.7586,3.1306e-06,-2.38e-06,0.0,0 STARLINK-4552,1 53420U 22097AJ  24021.15326866 -.00000238  00000-0  31306-5 0  9992,2 53420  53.2181   9.1072 0001498  79.3575 280.7586 15.08843409 80638,6917.87,95.437,540.771,538.699,0.0
53420.0,STARLINK-4552,PAYLOAD,2024-01-21 05:16:05,15.08845112,0.0001556,53.2175,8.8103,78.7889,281.3278,2.0114e-05,3.2e-07,0.0,0 STARLINK-4552,1 53420U 22097AJ  24021.21950742  .00000032  00000-0  20114-4 0  9990,2 53420  53.2175   8.8103 0001556  78.7889 281.3278 15.08845112 81109,6917.865,95.437,540.806,538.653,0.0
53420.0,STARLINK-4552,PAYLOAD,2024-01-21 08:26:51,15.08850629,0.0001662,53.2199,8.2068,64.9744,295.142,6.6473e-05,7.7e-06,0.0,0 STARLINK-4552,1 53420U 22097AJ  24021.35198137  .00000770  00000-0  66473-4 0  9994,2 53420  53.2199   8.2068 0001662  64.9744 295.1420 15.08850629 80665,6917.848,95.437,540.863,538.563,0.0
53420.0,STARLINK-4552,PAYLOAD,2024-01-22 03:31:29,15.08838654,0.0001861,53.2211,4.634,102.4602,257.6598,1.6903e-05,-1.9e-07,0.0,0 STARLINK-4552,1 53420U 22097AJ  24022.14686675 -.00000019  00000-0  16903-4 0  9991,2 53420  53.2211   4.6340 0001861 102.4602 257.6598 15.08838654 80781,6917.885,95.438,541.037,538.462,0.0
53420.0,STARLINK-4552,PAYLOAD,2024-01-22 05:06:52,15.08841071,0.0001709,53.221,4.3364,102.4539,257.6644,3.1605e-05,2.15e-06,0.0,0 STARLINK-4552,1 53420U 22097AJ  24022.21310520  .00000215  00000-0  31605-4 0  9995,2 53420  53.2210   4.3364 0001709 102.4539 257.6644 15.08841071 81255,6917.877,95.437,540.924,538.56,0.0
53420.0,STARLINK-4552,PAYLOAD,2024-01-23 03:22:15,15.08848652,0.0002138,53.2209,0.1741,124.5146,235.6048,-2.609e-05,-7.04e-06,0.0,0 STARLINK-4552,1 53420U 22097AJ  24023.14046041 -.00000704  00000-0 -26090-4 0  9999,2 53420  53.2209   0.1741 0002138 124.5146 235.6048 15.08848652 80932,6917.854,95.437,541.198,538.24,0.0
53420.0,STARLINK-4552,PAYLOAD,2024-01-23 04:57:38,15.08850596,0.0001727,53.2193,359.8916,102.5299,257.5887,5.6386e-06,-1.98e-06,0.0,0 STARLINK-4552,1 53420U 22097AJ  24023.20670120 -.00000198  00000-0  56386-5 0  9995,2 53420  53.2193 359.8916 0001727 102.5299 257.5887 15.08850596 81407,6917.848,95.437,540.908,538.518,0.0
53420.0,STARLINK-4552,PAYLOAD,2024-01-24 03:13:01,15.08855977,0.0001546,53.2205,355.7305,99.5586,260.5581,0.0001251,1.704e-05,0.0,0 STARLINK-4552,1 53420U 22097AJ  24024.13404834  .00001704  00000-0  12510-3 0  9997,2 53420  53.2205 355.7305 0001546  99.5586 260.5581 15.08855977 81088,6917.832,95.437,540.766,538.627,0.0
53420.0,STARLINK-4552,PAYLOAD,2024-01-24 04:48:24,15.0884423,0.000171,53.2205,355.4327,108.8966,251.2212,0.00033572,5.06e-05,0.0,0 STARLINK-4552,1 53420U 22097AJ  24024.20028853  .00005060  00000-0  33572-3 0  9998,2 53420  53.2205 355.4327 0001710 108.8966 251.2212 15.08844230 81558,6917.867,95.437,540.915,538.55,0.0
53420.0,STARLINK-4552,PAYLOAD,2024-01-25 03:03:50,15.08834215,0.0001413,53.2192,351.2652,91.5241,268.5913,-0.00010603,-1.975e-05,0.0,0 STARLINK-4552,1 53420U 22097AJ  24025.12767130 -.00001975  00000-0 -10603-3 0  9991,2 53420  53.2192 351.2652 0001413  91.5241 268.5913 15.08834215 81238,6917.898,95.438,540.741,538.786,0.0
53420.0,STARLINK-4552,PAYLOAD,2024-01-26 02:54:37,15.08842073,0.0001429,53.2192,346.8041,96.4702,263.6453,-0.00016241,-2.872e-05,0.0,0 STARLINK-4552,1 53420U 22097AJ  24026.12127149 -.00002872  00000-0 -16241-3 0  9993,2 53420  53.2192 346.8041 0001429  96.4702 263.6453 15.08842073 81385,6917.874,95.437,540.728,538.75,0.0
53420.0,STARLINK-4552,PAYLOAD,2024-01-27 04:20:48,15.08835829,0.0001439,53.2191,342.0484,91.4856,268.6301,0.00017327,2.47e-05,0.0,0 STARLINK-4552,1 53420U 22097AJ  24027.18111385  .00002470  00000-0  17327-3 0  9993,2 53420  53.2191 342.0484 0001439  91.4856 268.6301 15.08835829 81545,6917.893,95.438,540.754,538.763,0.0
53420.0,STARLINK-4552,PAYLOAD,2024-01-28 04:11:36,15.08803973,0.0001974,53.2203,337.5903,70.159,289.9615,0.00066114,0.00010239,0.0,0 STARLINK-4552,1 53420U 22097AJ  24028.17472465  .00010239  00000-0  66114-3 0  9992,2 53420  53.2203 337.5903 0001974  70.1590 289.9615 15.08803973 81692,6917.991,95.44,541.221,538.49,0.0
53420.0,STARLINK-4552,PAYLOAD,2024-01-28 05:46:59,15.08811779,0.0002039,53.2207,337.2856,69.4652,290.6559,0.00062192,9.616e-05,0.0,0 STARLINK-4552,1 53420U 22097AJ  24028.24096239  .00009616  00000-0  62192-3 0  9990,2 53420  53.2207 337.2856 0002039  69.4652 290.6559 15.08811779 82165,6917.967,95.439,541.242,538.421,0.0
53420.0,STARLINK-4552,PAYLOAD,2024-01-28 20:05:27,15.08841417,0.0002022,53.2196,334.6191,72.9631,287.1583,5.3084e-05,5.57e-06,0.0,0 STARLINK-4552,1 53420U 22097AJ  24028.83712030  .00000557  00000-0  53084-4 0  9995,2 53420  53.2196 334.6191 0002022  72.9631 287.1583 15.08841417 81791,6917.876,95.437,541.14,538.342,0.0
53420.0,STARLINK-4552,PAYLOAD,2024-01-29 19:56:13,15.08844173,0.0001761,53.2203,330.1524,100.6762,259.4429,5.8316e-06,-1.95e-06,0.0,0 STARLINK-4552,1 53420U 22097AJ  24029.83071686 -.00000195  00000-0  58316-5 0  9994,2 53420  53.2203 330.1524 0001761 100.6762 259.4429 15.08844173 82406,6917.868,95.437,540.951,538.514,0.0
53420.0,STARLINK-4552,PAYLOAD,2024-01-30 02:17:46,15.08847695,0.0001755,53.2203,328.9649,98.3956,261.7236,3.5708e-05,2.8e-06,0.0,0 STARLINK-4552,1 53420U 22097AJ  24030.09567260  .00000280  00000-0  35708-4 0  9995,2 53420  53.2203 328.9649 0001755  98.3956 261.7236 15.08847695 81986,6917.857,95.437,540.936,538.508,0.0
53420.0,STARLINK-4552,PAYLOAD,2024-01-30 19:47:00,15.08841158,0.0001476,53.2191,325.697,75.089,285.0265,8.2052e-05,1.018e-05,0.0,0 STARLINK-4552,1 53420U 22097AJ  24030.82431536  .00001018  00000-0  82052-4 0  9996,2 53420  53.2191 325.6970 0001476  75.0890 285.0265 15.08841158 82094,6917.877,95.437,540.763,538.721,0.0
53420.0,STARLINK-4552,PAYLOAD,2024-01-30 22:57:46,15.08894443,0.0001938,53.2189,325.0995,124.2266,235.891,-0.00069654,-0.00011373,0.0,0 STARLINK-4552,1 53420U 22097AJ  24030.95678368 -.00011373  00000-0 -69654-3 0  9995,2 53420  53.2189 325.0995 0001938 124.2266 235.8910 15.08894443 82577,6917.714,95.434,540.92,538.238,0.0
53420.0,STARLINK-4552,PAYLOAD,2024-01-31 05:19:19,15.08847616,0.0001493,53.2187,323.9083,106.4375,253.6782,3.7424e-05,3.08e-06,0.0,0 STARLINK-4552,1 53420U 22097AJ  24031.22175018  .00000308  00000-0  37424-4 0  9995,2 53420  53.2187 323.9083 0001493 106.4375 253.6782 15.08847616 82619,6917.857,95.437,540.755,538.689,0.0
53420.0,STARLINK-4552,PAYLOAD,2024-02-01 01:59:20,15.08838659,0.0001336,53.2187,320.0386,101.1737,258.9406,-8.4228e-05,-1.628e-05,0.0,0 STARLINK-4552,1 53420U 22097AJ  24032.08288062 -.00001628  00000-0 -84228-4 0  9996,2 53420  53.2187 320.0386 0001336 101.1737 258.9406 15.08838659 82284,6917.884,95.438,540.674,538.825,0.0
53420.0,STARLINK-4552,PAYLOAD,2024-02-01 19:28:35,15.0883862,0.000118,53.2179,316.7668,108.8074,251.3046,-9.7569e-06,-4.43e-06,0.0,0 STARLINK-4552,1 53420U 22097AJ  24032.81152077 -.00000443  00000-0 -97569-5 0  9990,2 53420  53.2179 316.7668 0001180 108.8074 251.3046 15.08838620 82853,6917.885,95.438,540.566,538.933,0.0
53420.0,STARLINK-4552,PAYLOAD,2024-02-02 01:50:07,15.08845231,0.000173,53.2198,315.5777,94.3039,265.8151,1.9207e-05,1.8e-07,0.0,0 STARLINK-4552,1 53420U 22097AJ  24033.07647711  .00000018  00000-0  19207-4 0  9991,2 53420  53.2198 315.5777 0001730  94.3039 265.8151 15.08845231 82430,6917.864,95.437,540.926,538.533,0.0
53420.0,STARLINK-4552,PAYLOAD,2024-02-02 22:30:09,15.08834125,0.0001621,53.2195,311.7154,80.176,279.9415,3.4923e-05,2.68e-06,0.0,0 STARLINK-4552,1 53420U 22097AJ  24033.93760649  .00000268  00000-0  34923-4 0  9991,2 53420  53.2195 311.7154 0001621  80.1760 279.9415 15.08834125 83022,6917.898,95.438,540.885,538.642,0.0
53420.0,STARLINK-4552,PAYLOAD,2024-02-03 00:05:32,15.0883371,0.0001754,53.2197,311.4155,70.4267,289.6914,3.5395e-05,2.75e-06,0.0,0 STARLINK-4552,1 53420U 22097AJ  24034.00384724  .00000275  00000-0  35395-4 0  9998,2 53420  53.2197 311.4155 0001754  70.4267 289.6914 15.08833710 82573,6917.9,95.438,540.978,538.551,0.0
53420.0,STARLINK-4552,PAYLOAD,2024-02-03 22:20:56,15.08841118,0.0001661,53.2197,307.255,85.6498,274.4684,1.9593e-05,2.4e-07,0.0,0 STARLINK-4552,1 53420U 22097AJ  24034.93120441  .00000024  00000-0  19593-4 0  9998,2 53420  53.2197 307.2550 0001661  85.6498 274.4684 15.08841118 83170,6917.877,95.437,540.891,538.593,0.0
53420.0,STARLINK-4552,PAYLOAD,2024-02-04 01:31:42,15.08845757,0.0001466,53.2184,306.6624,81.4831,278.6327,4.0192e-05,3.52e-06,0.0,0 STARLINK-4552,1 53420U 22097AJ  24035.06368088  .00000352  00000-0  40192-4 0  9997,2 53420  53.2184 306.6624 0001466  81.4831 278.6327 15.08845757 82733,6917.863,95.437,540.742,538.714,0.0
53420.0,STARLINK-4552,PAYLOAD,2024-02-04 22:11:42,15.08840528,0.0001562,53.2184,302.7961,73.6839,286.4325,7.5838e-05,9.19e-06,0.0,0 STARLINK-4552,1 53420U 22097AJ  24035.92480304  .00000919  00000-0  75838-4 0  9992,2 53420  53.2184 302.7961 0001562  73.6839 286.4325 15.08840528 83324,6917.879,95.438,540.824,538.663,0.0
53420.0,STARLINK-4552,PAYLOAD,2024-02-05 02:57:52,15.08830308,0.0001951,53.2192,301.9,57.6338,302.4843,0.00028385,4.231e-05,0.0,0 STARLINK-4552,1 53420U 22097AJ  24036.12352396  .00004231  00000-0  28385-3 0  9999,2 53420  53.2192 301.9000 0001951  57.6338 302.4843 15.08830308 82896,6917.91,95.438,541.125,538.425,0.0
